SL-8 R/B                
1 19257U 88053B   26089.10020969  .00000422  00000+0  14508-3 0  9998
2 19257  74.0457  74.8396 0021448 251.3997 187.8996 14.38930512979532
COSMOS 1975             
1 19573U 88093A   26089.08857195  .00009968  00000+0  35896-3 0  9996
2 19573  82.5159  97.1986 0013393  98.6469 261.6288 15.28350397 22525
SL-14 R/B               
1 19574U 88093B   26089.21452729  .00000679  00000+0  75331-4 0  9995
2 19574  82.5340  22.7797 0019995 334.3417 140.7184 14.85681207  4069
SL-16 R/B               
1 19650U 88102B   26089.10647689 -.00000040  00000+0  40309-5 0  9991
2 19650  70.9970 108.5377 0015177 331.2496  28.7789 14.16153513929781
INTERCOSMOS 24          
1 20261U 89080A   26089.05772500  .00000632  00000+0  18702-3 0  9998
2 20261  82.6011  91.1363 1186887 245.5015 101.7937 12.59584297669365
SL-14 R/B               
1 20262U 89080C   26089.20054154  .00000444  00000+0  12501-3 0  9996
2 20262  82.5953 160.0249 1230897 137.8897 232.3730 12.50513554662714
DELTA 1 R/B             
1 20323U 89089B   26089.17548712  .00000437  00000+0  11650-3 0  9993
2 20323  97.0690 293.3532 0070441  58.5324 302.2734 14.50680034898707
ARIANE 40 R/B           
1 20443U 90005H   26089.10484389  .00000330  00000+0  11852-3 0  9994
2 20443  98.3040 149.1538 0011045 139.0310 221.1711 14.39883924895747
DELTA 2 R/B(1)          
1 20453U 90008B   26089.20988780  .00085338  00000+0  91956-3 0  9997
2 20453  35.6037  39.9125 0077381  91.1577 269.8026 15.58726661929331
COSMOS 2058             
1 20465U 90010A   26089.10553174  .00006872  00000+0  40393-3 0  9992
2 20465  82.4696  27.3101 0007478 261.4669  98.5714 15.11511070945327
SL-14 R/B               
1 20466U 90010B   26089.19055617  .00000665  00000+0  77606-4 0  9993
2 20466  82.4999 248.1261 0018660 229.5722 130.3866 14.83588466931525
SL-14 R/B               
1 20511U 90018B   26089.02551592  .00000565  00000+0  67806-4 0  9997
2 20511  82.5238 204.0860 0016840  29.7045 330.5122 14.82165355925591
HST                     
1 20580U 90037B   26089.16812659  .00010500  00000+0  34538-3 0  9998
2 20580  28.4719 260.2692 0001806   5.3681 354.6933 15.29803034776450
SL-16 R/B               
1 20625U 90046B   26089.19781874  .00000202  00000+0  12875-3 0  9993
2 20625  70.9979 254.8386 0016386 272.7977  87.1270 14.15017096851293
COSMOS 2084             
1 20663U 90055A   26087.84866468  .00003212  00000+0  23409-3 0  9997
2 20663  62.7892 270.2268 0014042 195.9981 164.0678 15.05754696939206
SL-6 R/B(2)             
1 20666U 90055D   26088.98809647  .00002755  00000+0  21297-3 0  9996
2 20666  62.7835 184.8173 0028136 351.6091   8.4534 15.03692851941244
SL-8 R/B                
1 20775U 90078B   26089.13320396  .00014870  00000+0  44065-3 0  9998
2 20775  82.9025 232.9133 0358258 305.0467  51.7621 14.89671734812348
