[{"OBJECT_NAME":"SL-8 R/B","OBJECT_ID":"1988-053B","EPOCH":"2026-03-30T02:24:18.117216","MEAN_MOTION":14.38930512,"ECCENTRICITY":0.0021448,"INCLINATION":74.0457,"RA_OF_ASC_NODE":74.8396,"ARG_OF_PERICENTER":251.3997,"MEAN_ANOMALY":187.8996,"EPHEMERIS_TYPE":0,"CLASSIFICATION_TYPE":"U","NORAD_CAT_ID":19257,"ELEMENT_SET_NO":999,"REV_AT_EPOCH":97953,"BSTAR":0.00014508,"MEAN_MOTION_DOT":4.22e-6,"MEAN_MOTION_DDOT":0},{"OBJECT_NAME":"COSMOS 1975","OBJECT_ID":"1988-093A","EPOCH":"2026-03-30T02:07:32.616480","MEAN_MOTION":15.28350397,"ECCENTRICITY":0.0013393,"INCLINATION":82.5159,"RA_OF_ASC_NODE":97.1986,"ARG_OF_PERICENTER":98.6469,"MEAN_ANOMALY":261.6288,"EPHEMERIS_TYPE":0,"CLASSIFICATION_TYPE":"U","NORAD_CAT_ID":19573,"ELEMENT_SET_NO":999,"REV_AT_EPOCH":2252,"BSTAR":0.00035896,"MEAN_MOTION_DOT":9.968e-5,"MEAN_MOTION_DDOT":0},{"OBJECT_NAME":"SL-14 R/B","OBJECT_ID":"1988-093B","EPOCH":"2026-03-30T05:08:55.157856","MEAN_MOTION":14.85681207,"ECCENTRICITY":0.0019995,"INCLINATION":82.534,"RA_OF_ASC_NODE":22.7797,"ARG_OF_PERICENTER":334.3417,"MEAN_ANOMALY":140.7184,"EPHEMERIS_TYPE":0,"CLASSIFICATION_TYPE":"U","NORAD_CAT_ID":19574,"ELEMENT_SET_NO":999,"REV_AT_EPOCH":406,"BSTAR":7.5331e-5,"MEAN_MOTION_DOT":6.79e-6,"MEAN_MOTION_DDOT":0},{"OBJECT_NAME":"SL-16 R/B","OBJECT_ID":"1988-102B","EPOCH":"2026-03-30T02:33:19.603296","MEAN_MOTION":14.16153513,"ECCENTRICITY":0.0015177,"INCLINATION":70.997,"RA_OF_ASC_NODE":108.5377,"ARG_OF_PERICENTER":331.2496,"MEAN_ANOMALY":28.7789,"EPHEMERIS_TYPE":0,"CLASSIFICATION_TYPE":"U","NORAD_CAT_ID":19650,"ELEMENT_SET_NO":999,"REV_AT_EPOCH":92978,"BSTAR":4.0309e-6,"MEAN_MOTION_DOT":-4.0e-7,"MEAN_MOTION_DDOT":0},{"OBJECT_NAME":"INTERCOSMOS 24","OBJECT_ID":"1989-080A","EPOCH":"2026-03-30T01:23:07.440000","MEAN_MOTION":12.59584297,"ECCENTRICITY":0.1186887,"INCLINATION":82.6011,"RA_OF_ASC_NODE":91.1363,"ARG_OF_PERICENTER":245.5015,"MEAN_ANOMALY":101.7937,"EPHEMERIS_TYPE":0,"CLASSIFICATION_TYPE":"U","NORAD_CAT_ID":20261,"ELEMENT_SET_NO":999,"REV_AT_EPOCH":66936,"BSTAR":0.00018702,"MEAN_MOTION_DOT":6.32e-6,"MEAN_MOTION_DDOT":0},{"OBJECT_NAME":"SL-14 R/B","OBJECT_ID":"1989-080C","EPOCH":"2026-03-30T04:48:46.789056","MEAN_MOTION":12.50513554,"ECCENTRICITY":0.1230897,"INCLINATION":82.5953,"RA_OF_ASC_NODE":160.0249,"ARG_OF_PERICENTER":137.8897,"MEAN_ANOMALY":232.373,"EPHEMERIS_TYPE":0,"CLASSIFICATION_TYPE":"U","NORAD_CAT_ID":20262,"ELEMENT_SET_NO":999,"REV_AT_EPOCH":66271,"BSTAR":0.00012501,"MEAN_MOTION_DOT":4.44e-6,"MEAN_MOTION_DDOT":0},{"OBJECT_NAME":"DELTA 1 R/B","OBJECT_ID":"1989-089B","EPOCH":"2026-03-30T04:12:42.087168","MEAN_MOTION":14.50680034,"ECCENTRICITY":0.0070441,"INCLINATION":97.069,"RA_OF_ASC_NODE":293.3532,"ARG_OF_PERICENTER":58.5324,"MEAN_ANOMALY":302.2734,"EPHEMERIS_TYPE":0,"CLASSIFICATION_TYPE":"U","NORAD_CAT_ID":20323,"ELEMENT_SET_NO":999,"REV_AT_EPOCH":89870,"BSTAR":0.0001165,"MEAN_MOTION_DOT":4.37e-6,"MEAN_MOTION_DDOT":0},{"OBJECT_NAME":"ARIANE 40 R/B","OBJECT_ID":"1990-005H","EPOCH":"2026-03-30T02:30:58.512096","MEAN_MOTION":14.39883924,"ECCENTRICITY":0.0011045,"INCLINATION":98.304,"RA_OF_ASC_NODE":149.1538,"ARG_OF_PERICENTER":139.031,"MEAN_ANOMALY":221.1711,"EPHEMERIS_TYPE":0,"CLASSIFICATION_TYPE":"U","NORAD_CAT_ID":20443,"ELEMENT_SET_NO":999,"REV_AT_EPOCH":89574,"BSTAR":0.00011852,"MEAN_MOTION_DOT":3.3e-6,"MEAN_MOTION_DDOT":0},{"OBJECT_NAME":"DELTA 2 R/B(1)","OBJECT_ID":"1990-008B","EPOCH":"2026-03-30T05:02:14.305920","MEAN_MOTION":15.58726661,"ECCENTRICITY":0.0077381,"INCLINATION":35.6037,"RA_OF_ASC_NODE":39.9125,"ARG_OF_PERICENTER":91.1577,"MEAN_ANOMALY":269.8026,"EPHEMERIS_TYPE":0,"CLASSIFICATION_TYPE":"U","NORAD_CAT_ID":20453,"ELEMENT_SET_NO":999,"REV_AT_EPOCH":92933,"BSTAR":0.00091956,"MEAN_MOTION_DOT":0.00085338,"MEAN_MOTION_DDOT":0},{"OBJECT_NAME":"COSMOS 2058","OBJECT_ID":"1990-010A","EPOCH":"2026-03-30T02:31:57.942336","MEAN_MOTION":15.1151107,"ECCENTRICITY":0.0007478,"INCLINATION":82.4696,"RA_OF_ASC_NODE":27.3101,"ARG_OF_PERICENTER":261.4669,"MEAN_ANOMALY":98.5714,"EPHEMERIS_TYPE":0,"CLASSIFICATION_TYPE":"U","NORAD_CAT_ID":20465,"ELEMENT_SET_NO":999,"REV_AT_EPOCH":94532,"BSTAR":0.00040393,"MEAN_MOTION_DOT":6.872e-5,"MEAN_MOTION_DDOT":0},{"OBJECT_NAME":"SL-14 R/B","OBJECT_ID":"1990-010B","EPOCH":"2026-03-30T04:34:24.053088","MEAN_MOTION":14.83588466,"ECCENTRICITY":0.001866,"INCLINATION":82.4999,"RA_OF_ASC_NODE":248.1261,"ARG_OF_PERICENTER":229.5722,"MEAN_ANOMALY":130.3866,"EPHEMERIS_TYPE":0,"CLASSIFICATION_TYPE":"U","NORAD_CAT_ID":20466,"ELEMENT_SET_NO":999,"REV_AT_EPOCH":93152,"BSTAR":7.7606e-5,"MEAN_MOTION_DOT":6.65e-6,"MEAN_MOTION_DDOT":0},{"OBJECT_NAME":"SL-14 R/B","OBJECT_ID":"1990-018B","EPOCH":"2026-03-30T00:36:44.575488","MEAN_MOTION":14.82165355,"ECCENTRICITY":0.001684,"INCLINATION":82.5238,"RA_OF_ASC_NODE":204.086,"ARG_OF_PERICENTER":29.7045,"MEAN_ANOMALY":330.5122,"EPHEMERIS_TYPE":0,"CLASSIFICATION_TYPE":"U","NORAD_CAT_ID":20511,"ELEMENT_SET_NO":999,"REV_AT_EPOCH":92559,"BSTAR":6.7806e-5,"MEAN_MOTION_DOT":5.65e-6,"MEAN_MOTION_DDOT":0},{"OBJECT_NAME":"HST","OBJECT_ID":"1990-037B","EPOCH":"2026-03-30T04:02:06.137376","MEAN_MOTION":15.29803034,"ECCENTRICITY":0.0001806,"INCLINATION":28.4719,"RA_OF_ASC_NODE":260.2692,"ARG_OF_PERICENTER":5.3681,"MEAN_ANOMALY":354.6933,"EPHEMERIS_TYPE":0,"CLASSIFICATION_TYPE":"U","NORAD_CAT_ID":20580,"ELEMENT_SET_NO":999,"REV_AT_EPOCH":77645,"BSTAR":0.00034538,"MEAN_MOTION_DOT":0.000105,"MEAN_MOTION_DDOT":0},{"OBJECT_NAME":"SL-16 R/B","OBJECT_ID":"1990-046B","EPOCH":"2026-03-30T04:44:51.539136","MEAN_MOTION":14.15017096,"ECCENTRICITY":0.0016386,"INCLINATION":70.9979,"RA_OF_ASC_NODE":254.8386,"ARG_OF_PERICENTER":272.7977,"MEAN_ANOMALY":87.127,"EPHEMERIS_TYPE":0,"CLASSIFICATION_TYPE":"U","NORAD_CAT_ID":20625,"ELEMENT_SET_NO":999,"REV_AT_EPOCH":85129,"BSTAR":0.00012875,"MEAN_MOTION_DOT":2.02e-6,"MEAN_MOTION_DDOT":0},{"OBJECT_NAME":"COSMOS 2084","OBJECT_ID":"1990-055A","EPOCH":"2026-03-28T20:22:04.628352","MEAN_MOTION":15.05754696,"ECCENTRICITY":0.00140427,"INCLINATION":62.7892,"RA_OF_ASC_NODE":270.2268,"ARG_OF_PERICENTER":195.9981,"MEAN_ANOMALY":164.0678,"EPHEMERIS_TYPE":0,"CLASSIFICATION_TYPE":"U","NORAD_CAT_ID":20663,"ELEMENT_SET_NO":999,"REV_AT_EPOCH":93920,"BSTAR":0.00023409206,"MEAN_MOTION_DOT":3.212e-5,"MEAN_MOTION_DDOT":0},{"OBJECT_NAME":"SL-6 R/B(2)","OBJECT_ID":"1990-055D","EPOCH":"2026-03-29T23:42:51.535008","MEAN_MOTION":15.03692851,"ECCENTRICITY":0.0028136,"INCLINATION":62.7835,"RA_OF_ASC_NODE":184.8173,"ARG_OF_PERICENTER":351.6091,"MEAN_ANOMALY":8.4534,"EPHEMERIS_TYPE":0,"CLASSIFICATION_TYPE":"U","NORAD_CAT_ID":20666,"ELEMENT_SET_NO":999,"REV_AT_EPOCH":94124,"BSTAR":0.00021297,"MEAN_MOTION_DOT":2.755e-5,"MEAN_MOTION_DDOT":0},{"OBJECT_NAME":"SL-8 R/B","OBJECT_ID":"1990-078B","EPOCH":"2026-03-30T03:11:48.822144","MEAN_MOTION":14.89671734,"ECCENTRICITY":0.0358258,"INCLINATION":82.9025,"RA_OF_ASC_NODE":232.9133,"ARG_OF_PERICENTER":305.0467,"MEAN_ANOMALY":51.7621,"EPHEMERIS_TYPE":0,"CLASSIFICATION_TYPE":"U","NORAD_CAT_ID":20775,"ELEMENT_SET_NO":999,"REV_AT_EPOCH":81234,"BSTAR":0.00044065,"MEAN_MOTION_DOT":0.0001487,"MEAN_MOTION_DDOT":0}]
